SHIJIAN-31 (SJ-31)      
1 69570U 26136A   26181.50030604 -.00000395  00000+0  00000+0 0  9997
2 69570  63.4803 354.7071 6940886 171.7852 212.4449  1.92228328   342
GUOWANG OBJECT A        
1 69572U 26137A   26181.30911804 -.00000023  00000+0  99307-4 0  9999
2 69572  49.9989 203.1416 0012631 268.7932  91.1519 13.89813585  1846
GUOWANG OBJECT B        
1 69573U 26137B   26181.30617600 -.00000047  00000+0  79870-4 0  9996
2 69573  49.9986 203.1250 0011860 268.0481  91.9059 13.89805288  1854
GUOWANG OBJECT C        
1 69574U 26137C   26181.30515139 -.00000034  00000+0  90241-4 0  9992
2 69574  49.9949 203.1083 0011915 269.4211  90.5322 13.89816058  1850
GUOWANG OBJECT D        
1 69575U 26137D   26181.30410499 -.00000065  00000+0  65478-4 0  9994
2 69575  49.9947 203.1014 0011128 268.2349  91.7274 13.89828912  1859
GUOWANG OBJECT E        
1 69576U 26137E   26181.30310537 -.00000032  00000+0  92074-4 0  9993
2 69576  50.0005 203.1148 0011228 271.1663  88.7949 13.89826662  1854
GUOWANG OBJECT F        
1 69577U 26137F   26181.30217263 -.00000049  00000+0  78502-4 0  9994
2 69577  49.9996 203.1081 0010834 270.8062  89.1595 13.89810961  1855
GUOWANG OBJECT G        
1 69578U 26137G   26181.30120584 -.00000044  00000+0  82430-4 0  9994
2 69578  49.9948 203.0867 0010830 270.6592  89.3065 13.89796220  1851
GUOWANG OBJECT H        
1 69579U 26137H   26176.48489301  .00000037  00000+0  14270-3 0  9990
2 69579  49.9967 222.2731 0010122 259.8752 100.1006 13.92076941  1185
GUOWANG OBJECT J        
1 69580U 26137J   26178.27848690  .00000022  00000+0  13174-3 0  9997
2 69580  49.9961 215.0979 0011832 257.3150 102.6427 13.91997107  1436
CENTISPACE-1 GROUP 05 O*
1 69582U 26138A   26181.41767748 -.00000392  00000+0 -12179-3 0  9990
2 69582  55.1405 232.3108 0010309 309.8426  50.1640 14.15474415  1896
CENTISPACE-1 GROUP 05 O*
1 69583U 26138B   26181.48657949 -.00000397  00000+0 -12346-3 0  9990
2 69583  55.1404 232.0392 0009280 309.9443  50.0716 14.15655520  1907
CENTISPACE-1 GROUP 05 O*
1 69584U 26138C   26181.48577277 -.00000377  00000+0 -11310-3 0  9994
2 69584  55.1407 232.0433 0009214 311.7483  48.2702 14.15739525  1901
CENTISPACE-1 GROUP 05 O*
1 69585U 26138D   26181.48422029 -.00000419  00000+0 -13417-3 0  9996
2 69585  55.1410 232.0258 0008774 310.5310  49.4899 14.15926750  1905
CENTISPACE-1 GROUP 05 O*
1 69586U 26138E   26181.48360184 -.00000382  00000+0 -11501-3 0  9991
2 69586  55.1407 232.0297 0008489 310.8456  49.1782 14.15993213  1908
CENTISPACE-1 GROUP 05 O*
1 69587U 26138F   26181.48414763 -.00000398  00000+0 -12363-3 0  9999
2 69587  55.1410 232.0340 0008362 315.3903  44.6398 14.15916357  1906
CENTISPACE-1 GROUP 05 O*
1 69588U 26138G   26181.48258141 -.00000378  00000+0 -11316-3 0  9991
2 69588  55.1409 232.0227 0007640 314.8263  45.2090 14.16080958  1906
SPACEMOBILE-008         
1 69589U 26139A   26181.48622133  .00000286  00000+0  33065-4 0  9991
2 69589  52.9934 202.1879 0004230  19.7603 340.3552 15.12784596  1994
SPACEMOBILE-009         
1 69590U 26139B   26181.48714564  .00000251  00000+0  31179-4 0  9999
2 69590  52.9926 202.1898 0004416  14.3442 345.7673 15.12677961  1996
SPACEMOBILE-010         
1 69591U 26139C   26181.48861579  .00000224  00000+0  29738-4 0  9997
2 69591  52.9931 202.2012 0004282   4.5231 355.5798 15.12509113  2003
KUIPER-00423            
1 69592U 26140A   26180.98213289  .00033039  00000+0  86765-3 0  9995
2 69592  51.8807 336.7209 0013965 210.9287 149.0879 15.38227049  3209
KUIPER-00428            
1 69593U 26140B   26180.80928963 -.00033477  00000+0 -91842-3 0  9999
2 69593  51.8811 337.8082 0005221 340.4357  19.6428 15.36498775  3171
KUIPER-00481            
1 69594U 26140C   26180.85723110  .00035178  00000+0  94287-3 0  9996
2 69594  51.8788 337.3811 0011424 218.9090 141.1075 15.37598069  3183
KUIPER-00490            
1 69595U 26140D   26181.12659844  .00027197  00000+0  73442-3 0  9992
2 69595  51.8772 336.1806 0005945 277.5436  82.4875 15.37545659  3221
KUIPER-00493            
1 69596U 26140E   26181.13705598  .00026126  00000+0  73439-3 0  9999
2 69596  51.8814 336.2537 0006908 348.9117  11.1716 15.36314352  3226
KUIPER-00496            
1 69597U 26140F   26181.07654263  .00023788  00000+0  69696-3 0  9996
2 69597  51.8800 336.5933 0009231 354.9346   5.1545 15.35052627  3213
KUIPER-00513            
1 69598U 26140G   26181.12528998  .00025710  00000+0  69043-3 0  9991
2 69598  51.8811 336.1785 0006705 275.7074  84.3149 15.37744775  3222
KUIPER-00516            
1 69599U 26140H   26180.80325002  .00013609  00000+0  37619-3 0  9995
2 69599  51.8798 337.7661 0006286 294.7820  65.2513 15.37312178  3176
