OBJECT_NAME,OBJECT_ID,EPOCH,MEAN_MOTION,ECCENTRICITY,INCLINATION,RA_OF_ASC_NODE,ARG_OF_PERICENTER,MEAN_ANOMALY,EPHEMERIS_TYPE,CLASSIFICATION_TYPE,NORAD_CAT_ID,ELEMENT_SET_NO,REV_AT_EPOCH,BSTAR,MEAN_MOTION_DOT,MEAN_MOTION_DDOT
SHIJIAN-31 (SJ-31),2026-136A,2026-06-30T12:00:26.442720,1.92228328,.69408864,63.4803,354.7071,171.7852,212.4449,0,U,69570,999,34,0,-.395E-5,0
GUOWANG OBJECT A,2026-137A,2026-06-30T07:25:07.798656,13.89813585,.00126315,49.9989,203.1416,268.7932,91.1519,0,U,69572,999,184,.99306527E-4,-.23E-6,0
GUOWANG OBJECT B,2026-137B,2026-06-30T07:20:53.606400,13.89805288,.00118601,49.9986,203.1250,268.0481,91.9059,0,U,69573,999,185,.79869908E-4,-.47E-6,0
GUOWANG OBJECT C,2026-137C,2026-06-30T07:19:25.080096,13.89816058,.00119151,49.9949,203.1083,269.4211,90.5322,0,U,69574,999,185,.9024119E-4,-.34E-6,0
GUOWANG OBJECT D,2026-137D,2026-06-30T07:17:54.671136,13.89828912,.00111287,49.9947,203.1014,268.2349,91.7274,0,U,69575,999,185,.65477828E-4,-.65E-6,0
GUOWANG OBJECT E,2026-137E,2026-06-30T07:16:28.303968,13.89826662,.0011228,50.0005,203.1148,271.1663,88.7949,0,U,69576,999,185,.92074409E-4,-.32E-6,0
GUOWANG OBJECT F,2026-137F,2026-06-30T07:15:07.715232,13.89810961,.00108347,49.9996,203.1081,270.8062,89.1595,0,U,69577,999,185,.78502215E-4,-.49E-6,0
GUOWANG OBJECT G,2026-137G,2026-06-30T07:13:44.184576,13.89796220,.00108306,49.9948,203.0867,270.6592,89.3065,0,U,69578,999,185,.82429973E-4,-.44E-6,0
GUOWANG OBJECT H,2026-137H,2026-06-25T11:38:14.756064,13.92076941,.0010122,49.9967,222.2731,259.8752,100.1006,0,U,69579,999,118,.1427E-3,.37E-6,0
GUOWANG OBJECT J,2026-137J,2026-06-27T06:41:01.268160,13.91997107,.0011832,49.9961,215.0979,257.3150,102.6427,0,U,69580,999,143,.13174E-3,.22E-6,0
CENTISPACE-1 GROUP 05 OBJECT A,2026-138A,2026-06-30T10:01:27.334272,14.15474415,.00103098,55.1405,232.3108,309.8426,50.1640,0,U,69582,999,189,-.12179206E-3,-.392E-5,0
CENTISPACE-1 GROUP 05 OBJECT B,2026-138B,2026-06-30T11:40:40.467936,14.15655520,.00092802,55.1404,232.0392,309.9443,50.0716,0,U,69583,999,190,-.12346148E-3,-.397E-5,0
CENTISPACE-1 GROUP 05 OBJECT C,2026-138C,2026-06-30T11:39:30.767328,14.15739525,.00092142,55.1407,232.0433,311.7483,48.2702,0,U,69584,999,190,-.11309725E-3,-.377E-5,0
CENTISPACE-1 GROUP 05 OBJECT D,2026-138D,2026-06-30T11:37:16.633056,14.15926750,.00087748,55.1410,232.0258,310.5310,49.4899,0,U,69585,999,190,-.13417449E-3,-.419E-5,0
CENTISPACE-1 GROUP 05 OBJECT E,2026-138E,2026-06-30T11:36:23.198976,14.15993213,.00084898,55.1407,232.0297,310.8456,49.1782,0,U,69586,999,190,-.11500758E-3,-.382E-5,0
CENTISPACE-1 GROUP 05 OBJECT F,2026-138F,2026-06-30T11:37:10.355232,14.15916357,.00083627,55.1410,232.0340,315.3903,44.6398,0,U,69587,999,190,-.1236301E-3,-.398E-5,0
CENTISPACE-1 GROUP 05 OBJECT G,2026-138G,2026-06-30T11:34:55.033824,14.16080958,.00076408,55.1409,232.0227,314.8263,45.2090,0,U,69588,999,190,-.11316261E-3,-.378E-5,0
SPACEMOBILE-008,2026-139A,2026-06-30T11:40:09.522912,15.12784596,.000423,52.9934,202.1879,19.7603,340.3552,0,U,69589,999,199,.33064801E-4,.286E-5,0
SPACEMOBILE-009,2026-139B,2026-06-30T11:41:29.383296,15.12677961,.00044162,52.9926,202.1898,14.3442,345.7673,0,U,69590,999,199,.31179399E-4,.251E-5,0
SPACEMOBILE-010,2026-139C,2026-06-30T11:43:36.404256,15.12509113,.00042823,52.9931,202.2012,4.5231,355.5798,0,U,69591,999,200,.29738151E-4,.224E-5,0
KUIPER-00423,2026-140A,2026-06-29T23:34:16.281696,15.38227049,.00139655,51.8807,336.7209,210.9287,149.0879,0,U,69592,999,320,.86765209E-3,.33039E-3,0
KUIPER-00428,2026-140B,2026-06-29T19:25:22.624032,15.36498775,.00052219,51.8811,337.8082,340.4357,19.6428,0,U,69593,999,317,-.91841846E-3,-.33477E-3,0
KUIPER-00481,2026-140C,2026-06-29T20:34:24.767040,15.37598069,.00114245,51.8788,337.3811,218.9090,141.1075,0,U,69594,999,318,.94287085E-3,.35178E-3,0
KUIPER-00490,2026-140D,2026-06-30T03:02:18.105216,15.37545659,.00059453,51.8772,336.1806,277.5436,82.4875,0,U,69595,999,322,.73442219E-3,.27197E-3,0
KUIPER-00493,2026-140E,2026-06-30T03:17:21.636672,15.36314352,.00069086,51.8814,336.2537,348.9117,11.1716,0,U,69596,999,322,.73439359E-3,.26126E-3,0
KUIPER-00496,2026-140F,2026-06-30T01:50:13.283232,15.35052627,.00092319,51.8800,336.5933,354.9346,5.1545,0,U,69597,999,321,.6969638E-3,.23788E-3,0
KUIPER-00513,2026-140G,2026-06-30T03:00:25.054272,15.37744775,.00067054,51.8811,336.1785,275.7074,84.3149,0,U,69598,999,322,.69043043E-3,.2571E-3,0
KUIPER-00516,2026-140H,2026-06-29T19:16:40.801728,15.37312178,.00062863,51.8798,337.7661,294.7820,65.2513,0,U,69599,999,317,.37618984E-3,.13609E-3,0
